IRIDIUM 39              
1 25042U 97069D   25182.76672243  .00000388  00000+0  96397-4 0  9995
2 25042  86.3921 204.8831 0015535 256.6699 103.2773 14.49231327451078
IRIDIUM 38              
1 25043U 97069E   25182.85011814  .00000288  00000+0  88372-4 0  9990
2 25043  86.3954 226.9878 0003999  73.2506 286.9130 14.38126036448061
IRIDIUM 42              
1 25077U 97077A   25182.87432624  .00000258  00000+0  81498-4 0  9993
2 25077  86.3956 233.1650 0003034  86.4818 273.6725 14.36360915443309
IRIDIUM 44              
1 25078U 97077B   25182.78913843  .00000254  00000+0  74116-4 0  9996
2 25078  86.3962 215.0904 0002427  44.4774 315.6620 14.40250069445809
IRIDIUM 45              
1 25104U 97082A   25182.64642207  .00009097  00000+0  32443-3 0  9990
2 25104  86.3573  40.8686 0113280 277.6690  81.1702 15.22735027454242
IRIDIUM 24              
1 25105U 97082B   25182.95163799  .00000353  00000+0  10137-3 0  9991
2 25105  86.3894  74.0386 0012784  37.7050 322.5044 14.42109837445344
IRIDIUM 51              
1 25262U 98018A   25182.91039622  .00024823  00000+0  53792-3 0  9990
2 25262  86.3819  48.5375 0084653 191.7992 168.1282 15.40447762449296
IRIDIUM 57              
1 25273U 98019B   25182.87592527  .00000283  00000+0  90957-4 0  9995
2 25273  86.3982 139.1097 0002339  84.8532 275.2932 14.35900774426893
